NORAD_CAT_ID,OBJECT_NAME,OBJECT_TYPE,EPOCH,MEAN_MOTION,ECCENTRICITY,INCLINATION,RA_OF_ASC_NODE,ARG_OF_PERICENTER,MEAN_ANOMALY,BSTAR,MEAN_MOTION_DOT,MEAN_MOTION_DDOT,TLE_LINE0,TLE_LINE1,TLE_LINE2,SEMIMAJOR_AXIS,PERIOD,APOGEE,PERIGEE,DECAYED
54013.0,STARLINK-5098,PAYLOAD,2023-11-01 14:56:50,15.08841757,0.0001344,53.2157,100.5741,95.0707,265.0439,0.00011407,1.528e-05,0.0,0 STARLINK-5098,1 54013U 22125BB  23305.62280834  .00001528  00000-0  11407-3 0  9993,2 54013  53.2157 100.5741 0001344  95.0707 265.0439 15.08841757 59915,6917.875,95.437,540.67,538.81,0.0
54013.0,STARLINK-5098,PAYLOAD,2023-11-01 19:42:59,15.08846952,0.0001383,53.2159,99.6823,87.6862,272.4288,0.00022434,3.285e-05,0.0,0 STARLINK-5098,1 54013U 22125BB  23305.82152664  .00003285  00000-0  22434-3 0  9998,2 54013  53.2159  99.6823 0001383  87.6862 272.4288 15.08846952 59947,6917.859,95.437,540.681,538.767,0.0
54013.0,STARLINK-5098,PAYLOAD,2023-11-02 14:47:37,15.08840263,0.0001478,53.2172,96.1154,89.6312,270.485,2.2901e-05,7.7e-07,0.0,0 STARLINK-5098,1 54013U 22125BB  23306.61641058  .00000077  00000-0  22901-4 0  9992,2 54013  53.2172  96.1154 0001478  89.6312 270.4850 15.08840263 60065,6917.88,95.438,540.767,538.722,0.0
54013.0,STARLINK-5098,PAYLOAD,2023-11-02 16:23:00,15.08842616,0.0001377,53.2166,95.817,95.2635,264.8514,5.6241e-05,6.07e-06,0.0,0 STARLINK-5098,1 54013U 22125BB  23306.68264893  .00000607  00000-0  56241-4 0  9990,2 54013  53.2166  95.8170 0001377  95.2635 264.8514 15.08842616 60126,6917.872,95.437,540.69,538.785,0.0
54013.0,STARLINK-5098,PAYLOAD,2023-11-03 14:38:24,15.08844922,0.0001362,53.2169,91.6541,92.1065,268.0083,9.1269e-05,1.165e-05,0.0,0 STARLINK-5098,1 54013U 22125BB  23307.61000935  .00001165  00000-0  91269-4 0  9998,2 54013  53.2169  91.6541 0001362  92.1065 268.0083 15.08844922 60211,6917.865,95.437,540.673,538.788,0.0
54013.0,STARLINK-5098,PAYLOAD,2023-11-03 19:24:33,15.08850365,0.0001361,53.217,90.7612,97.3336,262.7811,0.00015364,2.159e-05,0.0,0 STARLINK-5098,1 54013U 22125BB  23307.80872599  .00002159  00000-0  15364-3 0  9997,2 54013  53.2170  90.7612 0001361  97.3336 262.7811 15.08850365 60295,6917.849,95.437,540.655,538.772,0.0
54013.0,STARLINK-5098,PAYLOAD,2023-11-04 09:43:02,15.08837304,0.0001447,53.2167,88.0862,86.0648,274.051,9.9079e-05,1.289e-05,0.0,0 STARLINK-5098,1 54013U 22125BB  23308.40489486  .00001289  00000-0  99079-4 0  9992,2 54013  53.2167  88.0862 0001447  86.0648 274.0510 15.08837304 60384,6917.889,95.438,540.755,538.753,0.0
54013.0,STARLINK-5098,PAYLOAD,2023-11-04 14:29:12,15.08840558,0.0001416,53.2172,87.1936,97.4473,262.668,0.00012356,1.679e-05,0.0,0 STARLINK-5098,1 54013U 22125BB  23308.60361326  .00001679  00000-0  12356-3 0  9991,2 54013  53.2172  87.1936 0001416  97.4473 262.6680 15.08840558 60364,6917.879,95.438,540.723,538.764,0.0
54013.0,STARLINK-5098,PAYLOAD,2023-11-04 16:04:35,15.08842926,0.0001339,53.2173,86.8963,88.928,271.1866,0.00015244,2.139e-05,0.0,0 STARLINK-5098,1 54013U 22125BB  23308.66985258  .00002139  00000-0  15244-3 0  9994,2 54013  53.2173  86.8963 0001339  88.9280 271.1866 15.08842926 60379,6917.871,95.437,540.663,538.81,0.0
54013.0,STARLINK-5098,PAYLOAD,2023-11-05 12:44:35,15.08851713,0.0001314,53.2173,83.0308,84.0152,276.099,0.0003089,4.633e-05,0.0,0 STARLINK-5098,1 54013U 22125BB  23309.53096851  .00004633  00000-0  30890-3 0  9998,2 54013  53.2173  83.0308 0001314  84.0152 276.0990 15.08851713 60500,6917.845,95.437,540.619,538.801,0.0
54013.0,STARLINK-5098,PAYLOAD,2023-11-05 15:55:21,15.08860419,0.0001307,53.2173,82.4368,82.7674,277.3466,0.00047175,7.232e-05,0.0,0 STARLINK-5098,1 54013U 22125BB  23309.66344486  .00007232  00000-0  47175-3 0  9994,2 54013  53.2173  82.4368 0001307  82.7674 277.3466 15.08860419 60577,6917.818,95.436,540.587,538.779,0.0
54013.0,STARLINK-5098,PAYLOAD,2023-11-06 14:10:46,15.08807558,0.0001439,53.2175,78.2739,78.8339,281.2815,-0.0010729,-0.00017307,0.0,0 STARLINK-5098,1 54013U 22125BB  23310.59081496 -.00017307  00000-0 -10729-2 0  9997,2 54013  53.2175  78.2739 0001439  78.8339 281.2815 15.08807558 60661,6917.98,95.44,540.84,538.849,0.0
54013.0,STARLINK-5098,PAYLOAD,2023-11-06 15:46:09,15.08801434,0.0001468,53.2174,77.9764,76.5523,283.5632,-0.0014896,-0.00023892,0.0,0 STARLINK-5098,1 54013U 22125BB  23310.65705381 -.00023892  00000-0 -14896-2 0  9995,2 54013  53.2174  77.9764 0001468  76.5523 283.5632 15.08801434 60722,6917.998,95.44,540.879,538.848,0.0
54013.0,STARLINK-5098,PAYLOAD,2023-11-07 01:18:29,15.08797395,0.0001542,53.2174,76.1904,73.4619,286.6543,-0.00028258,-4.777e-05,0.0,0 STARLINK-5098,1 54013U 22125BB  23311.05450726 -.00004777  00000-0 -28258-3 0  9999,2 54013  53.2174  76.1904 0001542  73.4619 286.6543 15.08797395 60785,6918.011,95.44,540.942,538.809,0.0
54013.0,STARLINK-5098,PAYLOAD,2023-11-07 14:01:35,15.088195,0.0001564,53.217,73.8138,75.6972,284.4194,0.0015081,0.00023781,0.0,0 STARLINK-5098,1 54013U 22125BB  23311.58444110  .00023781  00000-0  15081-2 0  9990,2 54013  53.2170  73.8138 0001564  75.6972 284.4194 15.08819500 60819,6917.943,95.439,540.89,538.726,0.0
54013.0,STARLINK-5098,PAYLOAD,2023-11-07 15:36:58,15.08827404,0.0001515,53.2166,73.5165,79.8196,280.2967,0.0017976,0.00028427,0.0,0 STARLINK-5098,1 54013U 22125BB  23311.65068128  .00028427  00000-0  17976-2 0  9996,2 54013  53.2166  73.5165 0001515  79.8196 280.2967 15.08827404 60871,6917.919,95.438,540.832,538.736,0.0
54013.0,STARLINK-5098,PAYLOAD,2023-11-08 13:52:22,15.08876286,0.0001505,53.2159,69.3534,78.3634,281.7527,0.0016704,0.00026423,0.0,0 STARLINK-5098,1 54013U 22125BB  23312.57803262  .00026423  00000-0  16704-2 0  9996,2 54013  53.2159  69.3534 0001505  78.3634 281.7527 15.08876286 60966,6917.769,95.435,540.676,538.593,0.0
54013.0,STARLINK-5098,PAYLOAD,2023-11-08 15:27:45,15.08878648,0.0001466,53.2163,69.056,70.9064,289.2087,0.0017777,0.00028147,0.0,0 STARLINK-5098,1 54013U 22125BB  23312.64427110  .00028147  00000-0  17777-2 0  9994,2 54013  53.2163  69.0560 0001466  70.9064 289.2087 15.08878648 60977,6917.762,95.435,540.641,538.613,0.0
54013.0,STARLINK-5098,PAYLOAD,2023-11-09 01:00:03,15.08870916,0.0001561,53.2158,67.2718,83.3494,276.7676,0.0007615,0.00011862,0.0,0 STARLINK-5098,1 54013U 22125BB  23313.04170600  .00011862  00000-0  76150-3 0  9995,2 54013  53.2158  67.2718 0001561  83.3494 276.7676 15.08870916 61085,6917.786,95.436,540.731,538.571,0.0
54013.0,STARLINK-5098,PAYLOAD,2023-11-09 12:07:45,15.08857021,0.0001541,53.216,65.1906,87.9476,272.1692,0.0012611,0.00019849,0.0,0 STARLINK-5098,1 54013U 22125BB  23313.50538509  .00019849  00000-0  12611-2 0  9996,2 54013  53.2160  65.1906 0001541  87.9476 272.1692 15.08857021 61150,6917.828,95.436,540.759,538.627,0.0
54013.0,STARLINK-5098,PAYLOAD,2023-11-09 13:43:08,15.08855755,0.0001507,53.2161,64.8933,87.1235,272.993,0.0012835,0.00020207,0.0,0 STARLINK-5098,1 54013U 22125BB  23313.57162457  .00020207  00000-0  12835-2 0  9996,2 54013  53.2161  64.8933 0001507  87.1235 272.9930 15.08855755 61115,6917.832,95.437,540.74,538.655,0.0
54013.0,STARLINK-5098,PAYLOAD,2023-11-09 15:18:31,15.08857771,0.0001531,53.2171,64.597,86.1121,274.0046,0.0015602,0.00024642,0.0,0 STARLINK-5098,1 54013U 22125BB  23313.63786414  .00024642  00000-0  15602-2 0  9990,2 54013  53.2171  64.5970 0001531  86.1121 274.0046 15.08857771 61126,6917.826,95.436,540.75,538.632,0.0
54013.0,STARLINK-5098,PAYLOAD,2023-11-10 11:58:32,15.0885002,0.0001205,53.218,60.7294,84.9322,275.1807,0.0011008,0.00017279,0.0,0 STARLINK-5098,1 54013U 22125BB  23314.49898488  .00017279  00000-0  11008-2 0  9994,2 54013  53.2180  60.7294 0001205  84.9322 275.1807 15.08850020 61307,6917.85,95.437,540.548,538.881,0.0
54013.0,STARLINK-5098,PAYLOAD,2023-11-10 13:33:55,15.08852317,0.0001402,53.2174,60.4311,95.8238,264.2914,0.00056689,8.749e-05,0.0,0 STARLINK-5098,1 54013U 22125BB  23314.56522325  .00008749  00000-0  56689-3 0  9993,2 54013  53.2174  60.4311 0001402  95.8238 264.2914 15.08852317 61267,6917.843,95.437,540.678,538.738,0.0
54013.0,STARLINK-5098,PAYLOAD,2023-11-11 00:41:37,15.08846928,0.0001363,53.2186,58.3505,97.3683,262.7464,0.00058419,9.023e-05,0.0,0 STARLINK-5098,1 54013U 22125BB  23315.02890424  .00009023  00000-0  58419-3 0  9992,2 54013  53.2186  58.3505 0001363  97.3683 262.7464 15.08846928 61385,6917.859,95.437,540.667,538.781,0.0
54013.0,STARLINK-5098,PAYLOAD,2023-11-11 11:49:19,15.08842124,0.0001451,53.2181,56.2693,95.5473,264.5685,0.00024044,3.541e-05,0.0,0 STARLINK-5098,1 54013U 22125BB  23315.49258491  .00003541  00000-0  24044-3 0  9991,2 54013  53.2181  56.2693 0001451  95.5473 264.5685 15.08842124 61457,6917.874,95.437,540.743,538.735,0.0
54013.0,STARLINK-5098,PAYLOAD,2023-11-11 13:24:42,15.08845321,0.0001463,53.2178,55.9718,97.1046,263.0112,0.00019073,2.749e-05,0.0,0 STARLINK-5098,1 54013U 22125BB  23315.55882405  .00002749  00000-0  19073-3 0  9991,2 54013  53.2178  55.9718 0001463  97.1046 263.0112 15.08845321 61411,6917.864,95.437,540.741,538.717,0.0
54013.0,STARLINK-5098,PAYLOAD,2023-11-11 16:35:28,15.0885006,0.0001523,53.218,55.3761,103.568,256.5482,0.00021034,3.062e-05,0.0,0 STARLINK-5098,1 54013U 22125BB  23315.69130178  .00003062  00000-0  21034-3 0  9998,2 54013  53.2180  55.3761 0001523 103.5680 256.5482 15.08850060 61434,6917.85,95.437,540.768,538.661,0.0
54013.0,STARLINK-5098,PAYLOAD,2023-11-12 11:40:07,15.08813022,0.0001861,53.2188,51.8047,109.5513,250.568,0.00098073,0.00015343,0.0,0 STARLINK-5098,1 54013U 22125BB  23316.48620247  .00015343  00000-0  98073-3 0  9999,2 54013  53.2188  51.8047 0001861 109.5513 250.5680 15.08813022 61606,6917.963,95.439,541.115,538.54,0.0
54013.0,STARLINK-5098,PAYLOAD,2023-11-12 13:15:29,15.08845997,0.000133,53.218,51.5068,95.8569,264.2574,0.00013526,1.866e-05,0.0,0 STARLINK-5098,1 54013U 22125BB  23316.55242426  .00001866  00000-0  13526-3 0  9991,2 54013  53.2180  51.5068 0001330  95.8569 264.2574 15.08845997 61562,6917.862,95.437,540.647,538.807,0.0
